[{"OBJECT_NAME":"ONEWEB-0159","OBJECT_ID":"2021-025W","EPOCH":"2026-04-01T04:12:33.688224","MEAN_MOTION":13.13471996,"ECCENTRICITY":0.000166,"INCLINATION":87.9022,"RA_OF_ASC_NODE":335.5395,"ARG_OF_PERICENTER":72.618,"MEAN_ANOMALY":287.513,"EPHEMERIS_TYPE":0,"CLASSIFICATION_TYPE":"U","NORAD_CAT_ID":48062,"ELEMENT_SET_NO":999,"REV_AT_EPOCH":24349,"BSTAR":-0.00045657,"MEAN_MOTION_DOT":-1.54e-06,"MEAN_MOTION_DDOT":0.0},{"OBJECT_NAME":"ONEWEB-0164","OBJECT_ID":"2021-025X","EPOCH":"2026-04-01T03:45:44.736192","MEAN_MOTION":13.13468392,"ECCENTRICITY":0.0001764,"INCLINATION":87.9019,"RA_OF_ASC_NODE":335.5498,"ARG_OF_PERICENTER":82.9539,"MEAN_ANOMALY":277.1791,"EPHEMERIS_TYPE":0,"CLASSIFICATION_TYPE":"U","NORAD_CAT_ID":48063,"ELEMENT_SET_NO":999,"REV_AT_EPOCH":24347,"BSTAR":-0.00054013,"MEAN_MOTION_DOT":-1.84e-06,"MEAN_MOTION_DDOT":0.0},{"OBJECT_NAME":"ONEWEB-0167","OBJECT_ID":"2021-025Y","EPOCH":"2026-04-01T04:25:57.819072","MEAN_MOTION":13.13472439,"ECCENTRICITY":0.0002336,"INCLINATION":87.9007,"RA_OF_ASC_NODE":335.5613,"ARG_OF_PERICENTER":72.9928,"MEAN_ANOMALY":287.1456,"EPHEMERIS_TYPE":0,"CLASSIFICATION_TYPE":"U","NORAD_CAT_ID":48064,"ELEMENT_SET_NO":999,"REV_AT_EPOCH":24346,"BSTAR":-0.00029092,"MEAN_MOTION_DOT":-9.3e-07,"MEAN_MOTION_DDOT":0.0},{"OBJECT_NAME":"ONEWEB-0166","OBJECT_ID":"2021-025Z","EPOCH":"2026-04-01T04:58:53.343840","MEAN_MOTION":13.13468854,"ECCENTRICITY":0.0001569,"INCLINATION":87.9017,"RA_OF_ASC_NODE":335.5214,"ARG_OF_PERICENTER":76.7539,"MEAN_ANOMALY":283.3765,"EPHEMERIS_TYPE":0,"CLASSIFICATION_TYPE":"U","NORAD_CAT_ID":48065,"ELEMENT_SET_NO":999,"REV_AT_EPOCH":24354,"BSTAR":0.0010436,"MEAN_MOTION_DOT":3.94e-06,"MEAN_MOTION_DDOT":0.0},{"OBJECT_NAME":"ONEWEB-0151","OBJECT_ID":"2021-025AA","EPOCH":"2026-04-01T05:01:19.555968","MEAN_MOTION":13.13471555,"ECCENTRICITY":0.0001837,"INCLINATION":87.9011,"RA_OF_ASC_NODE":335.5455,"ARG_OF_PERICENTER":79.6973,"MEAN_ANOMALY":280.4363,"EPHEMERIS_TYPE":0,"CLASSIFICATION_TYPE":"U","NORAD_CAT_ID":48066,"ELEMENT_SET_NO":999,"REV_AT_EPOCH":24348,"BSTAR":0.00097453,"MEAN_MOTION_DOT":3.69e-06,"MEAN_MOTION_DDOT":0.0},{"OBJECT_NAME":"ONEWEB-0170","OBJECT_ID":"2021-025AB","EPOCH":"2026-04-01T03:23:48.996384","MEAN_MOTION":13.1346849,"ECCENTRICITY":0.0002078,"INCLINATION":87.9009,"RA_OF_ASC_NODE":335.5607,"ARG_OF_PERICENTER":89.0116,"MEAN_ANOMALY":271.1251,"EPHEMERIS_TYPE":0,"CLASSIFICATION_TYPE":"U","NORAD_CAT_ID":48067,"ELEMENT_SET_NO":999,"REV_AT_EPOCH":24343,"BSTAR":0.0007146,"MEAN_MOTION_DOT":2.74e-06,"MEAN_MOTION_DDOT":0.0},{"OBJECT_NAME":"ONEWEB-0168","OBJECT_ID":"2021-025AC","EPOCH":"2026-04-01T04:51:34.560576","MEAN_MOTION":13.1346944,"ECCENTRICITY":0.00017,"INCLINATION":87.9017,"RA_OF_ASC_NODE":335.5414,"ARG_OF_PERICENTER":73.4647,"MEAN_ANOMALY":286.6669,"EPHEMERIS_TYPE":0,"CLASSIFICATION_TYPE":"U","NORAD_CAT_ID":48068,"ELEMENT_SET_NO":999,"REV_AT_EPOCH":24345,"BSTAR":0.00094709,"MEAN_MOTION_DOT":3.59e-06,"MEAN_MOTION_DDOT":0.0},{"OBJECT_NAME":"ONEWEB-0173","OBJECT_ID":"2021-025AD","EPOCH":"2026-04-01T04:39:22.089024","MEAN_MOTION":13.13471641,"ECCENTRICITY":0.0001935,"INCLINATION":87.9013,"RA_OF_ASC_NODE":335.5491,"ARG_OF_PERICENTER":70.8189,"MEAN_ANOMALY":289.315,"EPHEMERIS_TYPE":0,"CLASSIFICATION_TYPE":"U","NORAD_CAT_ID":48069,"ELEMENT_SET_NO":999,"REV_AT_EPOCH":24369,"BSTAR":0.00041384,"MEAN_MOTION_DOT":1.64e-06,"MEAN_MOTION_DDOT":0.0},{"OBJECT_NAME":"ONEWEB-0171","OBJECT_ID":"2021-025AE","EPOCH":"2026-04-01T03:43:18.624288","MEAN_MOTION":13.1346843,"ECCENTRICITY":0.0001818,"INCLINATION":87.9007,"RA_OF_ASC_NODE":335.5676,"ARG_OF_PERICENTER":80.8362,"MEAN_ANOMALY":279.2972,"EPHEMERIS_TYPE":0,"CLASSIFICATION_TYPE":"U","NORAD_CAT_ID":48070,"ELEMENT_SET_NO":999,"REV_AT_EPOCH":24350,"BSTAR":-0.00041108000000000003,"MEAN_MOTION_DOT":-1.37e-06,"MEAN_MOTION_DDOT":0.0},{"OBJECT_NAME":"ONEWEB-0172","OBJECT_ID":"2021-025AF","EPOCH":"2026-04-01T05:03:45.027648","MEAN_MOTION":13.1346973,"ECCENTRICITY":0.0001857,"INCLINATION":87.9007,"RA_OF_ASC_NODE":335.5441,"ARG_OF_PERICENTER":77.3159,"MEAN_ANOMALY":282.8178,"EPHEMERIS_TYPE":0,"CLASSIFICATION_TYPE":"U","NORAD_CAT_ID":48071,"ELEMENT_SET_NO":999,"REV_AT_EPOCH":24440,"BSTAR":0.00012666,"MEAN_MOTION_DOT":5.9e-07,"MEAN_MOTION_DDOT":0.0},{"OBJECT_NAME":"ONEWEB-0174","OBJECT_ID":"2021-025AG","EPOCH":"2026-04-01T04:36:56.270016","MEAN_MOTION":13.13472286,"ECCENTRICITY":0.0001587,"INCLINATION":87.9007,"RA_OF_ASC_NODE":335.5487,"ARG_OF_PERICENTER":76.1225,"MEAN_ANOMALY":284.0081,"EPHEMERIS_TYPE":0,"CLASSIFICATION_TYPE":"U","NORAD_CAT_ID":48072,"ELEMENT_SET_NO":999,"REV_AT_EPOCH":24372,"BSTAR":0.00073573,"MEAN_MOTION_DOT":2.81e-06,"MEAN_MOTION_DDOT":0.0},{"OBJECT_NAME":"ONEWEB-0175","OBJECT_ID":"2021-025AH","EPOCH":"2026-04-01T03:31:07.330368","MEAN_MOTION":13.13471333,"ECCENTRICITY":0.0002038,"INCLINATION":87.9016,"RA_OF_ASC_NODE":335.5356,"ARG_OF_PERICENTER":82.3511,"MEAN_ANOMALY":277.7849,"EPHEMERIS_TYPE":0,"CLASSIFICATION_TYPE":"U","NORAD_CAT_ID":48073,"ELEMENT_SET_NO":999,"REV_AT_EPOCH":24337,"BSTAR":5.3035e-05,"MEAN_MOTION_DOT":3.2e-07,"MEAN_MOTION_DDOT":0.0},{"OBJECT_NAME":"ONEWEB-0177","OBJECT_ID":"2021-025AJ","EPOCH":"2026-04-01T03:48:10.812672","MEAN_MOTION":13.13468673,"ECCENTRICITY":0.0001697,"INCLINATION":87.9014,"RA_OF_ASC_NODE":335.5546,"ARG_OF_PERICENTER":73.1683,"MEAN_ANOMALY":286.9632,"EPHEMERIS_TYPE":0,"CLASSIFICATION_TYPE":"U","NORAD_CAT_ID":48074,"ELEMENT_SET_NO":999,"REV_AT_EPOCH":24356,"BSTAR":-0.00038339,"MEAN_MOTION_DOT":-1.27e-06,"MEAN_MOTION_DDOT":0.0},{"OBJECT_NAME":"ONEWEB-0178","OBJECT_ID":"2021-025AK","EPOCH":"2026-04-01T04:15:11.476224","MEAN_MOTION":13.1347015,"ECCENTRICITY":0.0001953,"INCLINATION":87.8999,"RA_OF_ASC_NODE":335.574,"ARG_OF_PERICENTER":77.4451,"MEAN_ANOMALY":282.6896,"EPHEMERIS_TYPE":0,"CLASSIFICATION_TYPE":"U","NORAD_CAT_ID":48075,"ELEMENT_SET_NO":999,"REV_AT_EPOCH":24361,"BSTAR":-0.0012166,"MEAN_MOTION_DOT":-4.32e-06,"MEAN_MOTION_DDOT":0.0},{"OBJECT_NAME":"ONEWEB-0108","OBJECT_ID":"2021-025AL","EPOCH":"2026-04-01T05:06:12.038112","MEAN_MOTION":13.13468513,"ECCENTRICITY":0.0001529,"INCLINATION":87.9017,"RA_OF_ASC_NODE":335.5318,"ARG_OF_PERICENTER":84.75,"MEAN_ANOMALY":275.3804,"EPHEMERIS_TYPE":0,"CLASSIFICATION_TYPE":"U","NORAD_CAT_ID":48076,"ELEMENT_SET_NO":999,"REV_AT_EPOCH":24354,"BSTAR":0.00075561,"MEAN_MOTION_DOT":2.89e-06,"MEAN_MOTION_DDOT":0.0},{"OBJECT_NAME":"ONEWEB-0169","OBJECT_ID":"2021-025AM","EPOCH":"2026-04-01T04:02:48.204672","MEAN_MOTION":13.13469447,"ECCENTRICITY":0.0001544,"INCLINATION":87.9005,"RA_OF_ASC_NODE":335.5549,"ARG_OF_PERICENTER":83.9243,"MEAN_ANOMALY":276.2062,"EPHEMERIS_TYPE":0,"CLASSIFICATION_TYPE":"U","NORAD_CAT_ID":48077,"ELEMENT_SET_NO":999,"REV_AT_EPOCH":24219,"BSTAR":-0.0010194,"MEAN_MOTION_DOT":-3.6e-06,"MEAN_MOTION_DDOT":0.0}]