ONEWEB-0159             
1 48062U 21025W   26091.17538991 -.00000154  00000+0 -45657-3 0  9992
2 48062  87.9022 335.5395 0001660  72.6180 287.5130 13.13471996243492
ONEWEB-0164             
1 48063U 21025X   26091.15676778 -.00000184  00000+0 -54013-3 0  9996
2 48063  87.9019 335.5498 0001764  82.9539 277.1791 13.13468392243472
ONEWEB-0167             
1 48064U 21025Y   26091.18469698 -.00000093  00000+0 -29092-3 0  9999
2 48064  87.9007 335.5613 0002336  72.9928 287.1456 13.13472439243461
ONEWEB-0166             
1 48065U 21025Z   26091.20756185  .00000394  00000+0  10436-2 0  9996
2 48065  87.9017 335.5214 0001569  76.7539 283.3765 13.13468854243543
ONEWEB-0151             
1 48066U 21025AA  26091.20925412  .00000369  00000+0  97453-3 0  9995
2 48066  87.9011 335.5455 0001837  79.6973 280.4363 13.13471555243484
ONEWEB-0170             
1 48067U 21025AB  26091.14153931  .00000274  00000+0  71460-3 0  9993
2 48067  87.9009 335.5607 0002078  89.0116 271.1251 13.13468490243435
ONEWEB-0168             
1 48068U 21025AC  26091.20248334  .00000359  00000+0  94709-3 0  9998
2 48068  87.9017 335.5414 0001700  73.4647 286.6669 13.13469440243450
ONEWEB-0173             
1 48069U 21025AD  26091.19400566  .00000164  00000+0  41384-3 0  9999
2 48069  87.9013 335.5491 0001935  70.8189 289.3150 13.13471641243691
ONEWEB-0171             
1 48070U 21025AE  26091.15507667 -.00000137  00000+0 -41108-3 0  9993
2 48070  87.9007 335.5676 0001818  80.8362 279.2972 13.13468430243507
ONEWEB-0172             
1 48071U 21025AF  26091.21093782  .00000059  00000+0  12666-3 0  9997
2 48071  87.9007 335.5441 0001857  77.3159 282.8178 13.13469730244408
ONEWEB-0174             
1 48072U 21025AG  26091.19231794  .00000281  00000+0  73573-3 0  9993
2 48072  87.9007 335.5487 0001587  76.1225 284.0081 13.13472286243721
ONEWEB-0175             
1 48073U 21025AH  26091.14661262  .00000032  00000+0  53035-4 0  9992
2 48073  87.9016 335.5356 0002038  82.3511 277.7849 13.13471333243370
ONEWEB-0177             
1 48074U 21025AJ  26091.15845848 -.00000127  00000+0 -38339-3 0  9994
2 48074  87.9014 335.5546 0001697  73.1683 286.9632 13.13468673243564
ONEWEB-0178             
1 48075U 21025AK  26091.17721616 -.00000432  00000+0 -12166-2 0  9991
2 48075  87.8999 335.5740 0001953  77.4451 282.6896 13.13470150243611
ONEWEB-0108             
1 48076U 21025AL  26091.21263933  .00000289  00000+0  75561-3 0  9997
2 48076  87.9017 335.5318 0001529  84.7500 275.3804 13.13468513243540
ONEWEB-0169             
1 48077U 21025AM  26091.16861348 -.00000360  00000+0 -10194-2 0  9998
2 48077  87.9005 335.5549 0001544  83.9243 276.2062 13.13469447242199
